<?xml version="1.0" encoding="UTF-8"?>
<kml xmlns="http://www.opengis.net/kml/2.2">
  <Document>
    <name>Madeira</name>
    <description><![CDATA[Reisekarte Madeira<br>Stand 2024]]></description>
    <LookAt>
      <longitude>-16.9089</longitude>
      <latitude>32.6425</latitude>
      <heading>20</heading>
      <tilt>30</tilt>
      <range>50000</range>
    </LookAt>
    <Style id="icon-1899-0F9D58-normal">
      <IconStyle>
        <color>ff589d0f</color>
        <scale>1</scale>
        <Icon>
          <href>https://www.gstatic.com/mapspro/images/stock/503-wht-blank_maps.png</href>
        </Icon>
        <hotSpot x="32" xunits="pixels" y="64" yunits="insetPixels"/>
      </IconStyle>
      <LabelStyle>
        <scale>0</scale>
      </LabelStyle>
    </Style>
    <Style id="icon-1899-0F9D58-highlight">
      <IconStyle>
        <color>ffffffff</color>
        <scale>1.1</scale>
        <Icon>
          <href>https://www.gstatic.com/mapspro/images/stock/503-wht-blank_maps.png</href>
        </Icon>
        <hotSpot x="32" xunits="pixels" y="64" yunits="insetPixels"/>
      </IconStyle>
      <LabelStyle>
        <scale>1</scale>
      </LabelStyle>
    </Style>
    <StyleMap id="icon-1899-0F9D58">
      <Pair>
        <key>highlight</key>
        <styleUrl>#icon-1899-0F9D58-highlight</styleUrl>
      </Pair>
      <Pair>
        <key>normal</key>
        <styleUrl>#icon-1899-0F9D58-normal</styleUrl>
      </Pair>
    </StyleMap>
    <Style id="line-000000-1200-normal">
      <LineStyle>
        <color>ff000000</color>
        <width>1.2</width>
      </LineStyle>
    </Style>
    <Style id="line-000000-1200-highlight">
      <LineStyle>
        <color>ff0000ff</color>
        <width>2.4</width>
      </LineStyle>
    </Style>
    <StyleMap id="line-000000-1200">
      <Pair>
        <key>highlight</key>
        <styleUrl>#line-000000-1200-highlight</styleUrl>
      </Pair>
      <Pair>
        <key>normal</key>
        <styleUrl>#line-000000-1200-normal</styleUrl>
      </Pair>
    </StyleMap>
    <Folder>
      <name>Unbenannte Ebene</name>
      <Placemark>
        <name>Cristiano Ronaldo Statue</name>
        <description><![CDATA[Statue am Hafen von Funchal<br>Freier Eintritt]]></description>
        <styleUrl>#icon-1899-0F9D58</styleUrl>
        <ExtendedData>
          <Data name="Kategorie">
            <value>Sehenswürdigkeit</value>
          </Data>
        </ExtendedData>
        <Point>
          <coordinates>-16.9089,32.6425,0</coordinates>
        </Point>
      </Placemark>
      <Placemark>
        <name>Levada do Caldeirão Verde</name>
        <styleUrl>#line-000000-1200</styleUrl>
        <LineString>
          <tessellate>1</tessellate>
          <coordinates>
            -16.8842,32.7791,0
            -16.8721,32.7834,0
            -16.8603,32.7902,0
          </coordinates>
        </LineString>
      </Placemark>
    </Folder>
  </Document>
</kml>
